     2.100          NAVIGATION                              RINEX VERSION / TYPE
fic2rin                                 06/02/2013 00:28:26 PGM / RUN BY / DATE
                                                            END OF HEADER
 7 13  6  1 18  0  0.0  .220339279622D-03  .420641299570D-11  .000000000000D+00
     .860000000000D+02 -.269062500000D+02  .417124517768D-08 -.292123420886D+01
    -.134110450745D-05  .641074683517D-02  .986643135548D-05  .515369261360D+04
     .583200000000D+06 -.819563865662D-07  .169341120206D+01 -.651925802231D-07
     .975199141644D+00  .199218750000D+03 -.293588047214D+01 -.781568269741D-08
    -.100004165575D-09  .100000000000D+01  .174200000000D+04  .000000000000D+00
     .240000000000D+01  .000000000000D+00 -.107102096081D-07  .860000000000D+02
     .576006000000D+06  .400000000000D+01
 8 13  6  1 18  0  0.0  .651506707072D-05  .227373675443D-12  .000000000000D+00
     .640000000000D+02 -.245000000000D+02  .363479426091D-08  .280223671161D+01
    -.121816992760D-05  .129647704307D-01  .103879719973D-04  .515372586441D+04
     .583200000000D+06 -.191852450371D-06  .178482918690D+01 -.109896063805D-06
     .997936123108D+00  .200187500000D+03 -.287415906015D+01 -.746638243337D-08
    -.400016662300D-10  .100000000000D+01  .174200000000D+04  .000000000000D+00
     .240000000000D+01  .000000000000D+00 -.419095158577D-08  .640000000000D+02
     .576006000000D+06  .400000000000D+01
 9 13  6  1 18  0  0.0  .244895461947D-03  .261479726760D-11  .000000000000D+00
     .620000000000D+02 -.308750000000D+02  .396445084958D-08 -.220845354049D+01
    -.133551657200D-05  .174238135805D-01  .887177884579D-05  .515278836823D+04
     .583200000000D+06  .206753611565D-06  .167022145769D+01  .162050127983D-06
     .983826876567D+00  .217062500000D+03  .166659952854D+01 -.758745890526D-08
    -.410731394325D-10  .100000000000D+01  .174200000000D+04  .000000000000D+00
     .340000000000D+01  .000000000000D+00 -.558793544769D-08  .620000000000D+02
     .576006000000D+06  .400000000000D+01
10 13  6  1 18  0  0.0 -.819503329694D-04 -.136424205266D-11  .000000000000D+00
     .990000000000D+02  .654062500000D+02  .492913388964D-08  .893462796929D+00
     .342912971973D-05  .124036322813D-01  .844150781631D-05  .515364119911D+04
     .583200000000D+06 -.113621354103D-06 -.404194943588D+00  .633299350739D-07
     .943681740498D+00  .207906250000D+03  .802668644245D+00 -.846785272005D-08
     .126433837905D-09  .100000000000D+01  .174200000000D+04  .000000000000D+00
     .340000000000D+01  .000000000000D+00 -.279396772385D-08  .990000000000D+02
     .576006000000D+06  .400000000000D+01
11 13  6  1 18  0  0.0 -.387520529330D-03 -.363797880709D-11  .000000000000D+00
     .650000000000D+02 -.509375000000D+02  .594953353624D-08 -.271823093915D+01
    -.262819230556D-05  .140095133102D-01  .889040529728D-05  .515368962479D+04
     .583200000000D+06  .171363353729D-06 -.176464500772D+01 -.502914190292D-07
     .888637588397D+00  .165750000000D+03  .116904155543D+01 -.851249743683D-08
    -.195722438339D-09  .100000000000D+01  .174200000000D+04  .000000000000D+00
     .240000000000D+01  .000000000000D+00 -.116415321827D-07  .650000000000D+02
     .576006000000D+06  .400000000000D+01
13 13  6  1 18  0  0.0  .113638583571D-03 -.363797880709D-11  .000000000000D+00
     .670000000000D+02 -.309375000000D+01  .433196615806D-08 -.539941796617D+00
    -.465661287308D-06  .518229848240D-02  .550225377083D-05  .515374369621D+04
     .583200000000D+06 -.391155481339D-07  .726032994554D+00 -.372529029846D-08
     .981682085056D+00  .285406250000D+03  .212847718277D+01 -.817498337801D-08
    -.878608026122D-10  .100000000000D+01  .174200000000D+04  .000000000000D+00
     .240000000000D+01  .000000000000D+00 -.111758708954D-07  .670000000000D+02
     .576006000000D+06  .400000000000D+01
14 13  6  1 18  0  0.0  .220641493797D-03 -.227373675443D-12  .000000000000D+00
     .630000000000D+02  .406250000000D+01  .450590197462D-08 -.344876493033D+00
     .227242708206D-06  .694074179046D-02  .511668622494D-05  .515375007057D+04
     .583200000000D+06 -.819563865662D-07  .696749694604D+00  .391155481339D-07
     .974372421768D+00  .291562500000D+03 -.203600278968D+01 -.828355932921D-08
    -.907180644858D-10  .100000000000D+01  .174200000000D+04  .000000000000D+00
     .240000000000D+01  .000000000000D+00 -.884756445885D-08  .630000000000D+02
     .576006000000D+06  .400000000000D+01
15 13  6  1 18  0  0.0 -.121525954455D-03 -.159161572810D-11  .000000000000D+00
     .990000000000D+02  .122187500000D+02  .522914638636D-08 -.873045867488D+00
     .612810254097D-06  .540139304940D-02  .409409403801D-05  .515376328278D+04
     .583200000000D+06  .115483999252D-06  .596703361879D+00 -.651925802231D-07
     .941048363607D+00  .285500000000D+03  .168365202435D+00 -.859714381983D-08
    -.285726187357D-11  .100000000000D+01  .174200000000D+04  .000000000000D+00
     .240000000000D+01  .000000000000D+00 -.102445483208D-07  .990000000000D+02
     .576006000000D+06  .400000000000D+01
16 13  6  1 18  0  0.0 -.251704826951D-03  .341060513165D-12  .000000000000D+00
     .420000000000D+02  .143437500000D+02  .415874465698D-08  .850602809673D+00
     .929459929466D-06  .716374220792D-02  .697188079357D-05  .515364624596D+04
     .583200000000D+06  .800937414169D-07  .277088967312D+01  .117346644402D-06
     .985061668664D+00  .253500000000D+03  .104890221259D+00 -.796068873750D-08
     .147148986489D-09  .100000000000D+01  .174200000000D+04  .000000000000D+00
     .240000000000D+01  .000000000000D+00 -.102445483208D-07  .420000000000D+02
     .576006000000D+06  .400000000000D+01
17 13  6  1 18  0  0.0  .134073197842D-04 -.409272615798D-11  .000000000000D+00
     .790000000000D+02 -.389375000000D+02  .478269921862D-08 -.160920049526D+00
    -.199116766453D-05  .834729545750D-02  .589713454247D-05  .515363009644D+04
     .583200000000D+06  .223517417908D-07 -.247603929789D+01  .147148966789D-06
     .965558777753D+00  .269156250000D+03 -.219073883579D+01 -.839249243814D-08
    -.156435087578D-09  .100000000000D+01  .174200000000D+04  .000000000000D+00
     .240000000000D+01  .000000000000D+00 -.102445483208D-07  .790000000000D+02
     .576006000000D+06  .400000000000D+01
18 13  6  1 18  0  0.0  .256518367678D-03  .181898940355D-11  .000000000000D+00
     .330000000000D+02  .585000000000D+02  .527307678767D-08  .133459201425D+01
     .307336449623D-05  .143831009045D-01  .821799039841D-05  .515361063576D+04
     .583200000000D+06 -.335276126862D-06 -.421111625012D+00  .223517417908D-07
     .927447450378D+00  .203812500000D+03 -.210548816539D+01 -.864214569434D-08
     .120719314158D-09  .100000000000D+01  .174200000000D+04  .000000000000D+00
     .240000000000D+01  .000000000000D+00 -.111758708954D-07  .330000000000D+02
     .576006000000D+06  .400000000000D+01
19 13  6  1 18  0  0.0 -.377641525120D-03 -.306954461848D-11  .000000000000D+00
     .410000000000D+02 -.429375000000D+02  .469340978507D-08 -.872352786641D+00
    -.228546559811D-05  .931132910773D-02  .621564686298D-05  .515369968414D+04
     .583200000000D+06  .201165676117D-06 -.242411882260D+01 -.447034835815D-07
     .962758890064D+00  .260906250000D+03  .309111572149D+00 -.821034199370D-08
    -.206794328100D-09  .100000000000D+01  .174200000000D+04  .000000000000D+00
     .240000000000D+01  .000000000000D+00 -.149011611938D-07  .410000000000D+02
     .576006000000D+06  .400000000000D+01
20 13  6  1 18  0  0.0  .101200304925D-03  .204636307899D-11  .000000000000D+00
     .990000000000D+02  .700937500000D+02  .521021702645D-08  .184941033164D+01
     .362098217010D-05  .538671587128D-02  .813417136669D-05  .515373535538D+04
     .583200000000D+06  .409781932831D-07 -.474537125553D+00 -.141561031342D-06
     .928169602332D+00  .203625000000D+03  .129795218789D+01 -.845356641069D-08
     .298941023522D-09  .100000000000D+01  .174200000000D+04  .000000000000D+00
     .240000000000D+01  .000000000000D+00 -.791624188423D-08  .990000000000D+02
     .576006000000D+06  .400000000000D+01
22 13  6  1 18  0  0.0  .170039013028D-03  .159161572810D-11  .000000000000D+00
     .360000000000D+02  .681250000000D+02  .534272254584D-08  .756679911167D+00
     .355206429958D-05  .666244863532D-02  .784173607826D-05  .515365080833D+04
     .583200000000D+06 -.139698386192D-06 -.418513505910D+00  .186264514923D-07
     .925196298871D+00  .209500000000D+03 -.204288550910D+01 -.857142846297D-08
     .125005206969D-09  .100000000000D+01  .174200000000D+04  .000000000000D+00
     .240000000000D+01  .000000000000D+00 -.172294676304D-07  .360000000000D+02
     .576006000000D+06  .400000000000D+01
23 13  6  1 18  0  0.0  .802301801741D-04 -.363797880709D-11  .000000000000D+00
     .130000000000D+02  .103125000000D+01  .489091801208D-08 -.135026490663D+01
    -.169500708580D-06  .859264063183D-02  .462494790554D-05  .515370226288D+04
     .583200000000D+06  .651925802231D-07  .637946169270D+00 -.726431608200D-07
     .955967916084D+00  .283187500000D+03 -.288708184063D+01 -.838642075666D-08
     .196436753808D-10  .100000000000D+01  .174200000000D+04  .000000000000D+00
     .240000000000D+01  .000000000000D+00 -.200234353542D-07  .130000000000D+02
     .576006000000D+06  .400000000000D+01
24 13  6  1 18  0  0.0 -.741519033909D-05 -.682121026330D-12  .000000000000D+00
     .380000000000D+02 -.355937500000D+02  .460840624433D-08 -.228564588463D+01
    -.190921127796D-05  .946691841818D-03  .820867717266D-05  .515368125725D+04
     .583200000000D+06 -.372529029846D-08  .166478623280D+01 -.521540641785D-07
     .958731062586D+00  .221062500000D+03  .427721949090D+00 -.813176729218D-08
    -.939324840936D-10  .100000000000D+01  .174200000000D+04  .000000000000D+00
     .240000000000D+01  .000000000000D+00  .279396772385D-08  .380000000000D+02
     .576006000000D+06  .400000000000D+01
